GLOBALSTAR M075         
1 37192U 10054E   25296.92672804 -.00000077  00000+0  15116-3 0  9995
2 37192  51.9924 149.5538 0000903  82.6800  22.9160 12.62269258692106
GLOBALSTAR M073         
1 37193U 10054F   25296.85501009 -.00000119  00000+0 -85613-4 0  9994
2 37193  52.0067  63.6875 0000657 124.3846  14.0706 12.62263615694085
GLOBALSTAR M083         
1 37739U 11033A   25296.63617082 -.00000085  00000+0  10328-3 0  9994
2 37739  51.9884  12.9080 0000532 130.3116  34.9431 12.62263815663073
GLOBALSTAR M088         
1 37740U 11033B   25296.97719250 -.00000096  00000+0  44332-4 0  9998
2 37740  52.0211 277.7272 0000553  63.2276 331.0255 12.62269171658664
GLOBALSTAR M091         
1 37741U 11033C   25296.91259407 -.00000085  00000+0  10589-3 0  9990
2 37741  51.9991 241.2368 0000717  77.0126 324.0585 12.62260830659447
GLOBALSTAR M085         
1 37742U 11033D   25296.13767152 -.00000057  00000+0  26275-3 0  9994
2 37742  52.0116 194.6820 0000920  86.3511  91.6395 12.62266031659850
GLOBALSTAR M081         
1 37743U 11033E   25296.99892270 -.00000062  00000+0  23112-3 0  9992
2 37743  51.9946 194.7656 0000695  82.1902 291.1418 12.62269525660110
GLOBALSTAR M089         
1 37744U 11033F   25296.03117875 -.00000057  00000+0  26227-3 0  9993
2 37744  51.9913 151.9158 0000759  66.2009  48.1882 12.62272160660832
